STARLINK-35527          
1 66092U 25236G   25316.91668981 -.02076271  00000+0 -31676-1 0  9996
2 66092  53.1590 288.4226 0001410  86.4335 356.2108 15.57006141  5083
STARLINK-35500          
1 66093U 25236H   25316.91668981 -.02078860  00000+0 -31718-1 0  9990
2 66093  53.1592 288.4189 0001406  86.1900 358.3697 15.57008461  5087
STARLINK-35528          
1 66094U 25236J   25316.91668981 -.02078437  00000+0 -31709-1 0  9991
2 66094  53.1590 288.4150 0001399  87.9513 358.5232 15.57009464  5085
STARLINK-35559          
1 66095U 25236K   25316.91668981 -.02069480  00000+0 -31564-1 0  9999
2 66095  53.1588 288.4111 0001412  87.4602   0.9338 15.57003158  5089
STARLINK-34386          
1 66096U 25236L   25316.91668981 -.02067259  00000+0 -31528-1 0  9992
2 66096  53.1588 288.4072 0001356  89.7375   0.5751 15.57001390  5086
STARLINK-35613          
1 66097U 25236M   25316.91668981 -.02069045  00000+0 -31556-1 0  9999
2 66097  53.1589 288.3990 0001410  87.2755   6.8682 15.57003425  5085
STARLINK-34206          
1 66098U 25236N   25316.91668981 -.02074024  00000+0 -31637-1 0  9993
2 66098  53.1591 288.3949 0001382  85.7634  10.2956 15.57007131  5070
STARLINK-34460          
1 66099U 25236P   25316.91668981 -.02067766  00000+0 -31535-1 0  9996
2 66099  53.1588 288.4033 0001431  84.8939   7.3342 15.57002204  5088
STARLINK-35609          
1 66100U 25236Q   25316.91668981 -.02073424  00000+0 -31629-1 0  9991
2 66100  53.1593 288.3906 0001369  86.5603  11.4183 15.57005381  5024
STARLINK-35595          
1 66101U 25236R   25316.91668981 -.02073779  00000+0 -31635-1 0  9992
2 66101  53.1595 288.3861 0001468  90.1119   9.7848 15.57004379  5024
STARLINK-35599          
1 66102U 25236S   25316.91668981 -.02069506  00000+0 -31566-1 0  9999
2 66102  53.1593 288.3831 0001373  88.2084  13.6068 15.57001684  5028
STARLINK-35622          
1 66103U 25236T   25316.91668981 -.02074703  00000+0 -31650-1 0  9999
2 66103  53.1590 288.3750 0001385  85.9977  19.6488 15.57005954  5086
