CCSDS_OMM_VERS = 2.0
CREATION_DATE  = 
ORIGINATOR     = 

OBJECT_NAME    = STARLINK-35527
OBJECT_ID      = 2025-236G
CENTER_NAME    = EARTH
REF_FRAME      = TEME
TIME_SYSTEM    = UTC
MEAN_ELEMENT_THEORY = SGP/SGP4

EPOCH          = 2025-11-12T22:00:01.999584
MEAN_MOTION    = 15.57006141
ECCENTRICITY   = .00014108
INCLINATION    = 53.1590
RA_OF_ASC_NODE = 288.4226
ARG_OF_PERICENTER = 86.4335
MEAN_ANOMALY   = 356.2108

EPHEMERIS_TYPE = 0
CLASSIFICATION_TYPE = U
NORAD_CAT_ID   = 66092
ELEMENT_SET_NO = 999
REV_AT_EPOCH   = 508
BSTAR          = -.3167618E-1
MEAN_MOTION_DOT = -.2076271E-1
MEAN_MOTION_DDOT = 0

CCSDS_OMM_VERS = 2.0
CREATION_DATE  = 
ORIGINATOR     = 

OBJECT_NAME    = STARLINK-35500
OBJECT_ID      = 2025-236H
CENTER_NAME    = EARTH
REF_FRAME      = TEME
TIME_SYSTEM    = UTC
MEAN_ELEMENT_THEORY = SGP/SGP4

EPOCH          = 2025-11-12T22:00:01.999584
MEAN_MOTION    = 15.57008461
ECCENTRICITY   = .00014063
INCLINATION    = 53.1592
RA_OF_ASC_NODE = 288.4189
ARG_OF_PERICENTER = 86.1900
MEAN_ANOMALY   = 358.3697

EPHEMERIS_TYPE = 0
CLASSIFICATION_TYPE = U
NORAD_CAT_ID   = 66093
ELEMENT_SET_NO = 999
REV_AT_EPOCH   = 508
BSTAR          = -.31717758E-1
MEAN_MOTION_DOT = -.207886E-1
MEAN_MOTION_DDOT = 0

CCSDS_OMM_VERS = 2.0
CREATION_DATE  = 
ORIGINATOR     = 

OBJECT_NAME    = STARLINK-35528
OBJECT_ID      = 2025-236J
CENTER_NAME    = EARTH
REF_FRAME      = TEME
TIME_SYSTEM    = UTC
MEAN_ELEMENT_THEORY = SGP/SGP4

EPOCH          = 2025-11-12T22:00:01.999584
MEAN_MOTION    = 15.57009464
ECCENTRICITY   = .00013993
INCLINATION    = 53.1590
RA_OF_ASC_NODE = 288.4150
ARG_OF_PERICENTER = 87.9513
MEAN_ANOMALY   = 358.5232

EPHEMERIS_TYPE = 0
CLASSIFICATION_TYPE = U
NORAD_CAT_ID   = 66094
ELEMENT_SET_NO = 999
REV_AT_EPOCH   = 508
BSTAR          = -.31709397E-1
MEAN_MOTION_DOT = -.2078437E-1
MEAN_MOTION_DDOT = 0

CCSDS_OMM_VERS = 2.0
CREATION_DATE  = 
ORIGINATOR     = 

OBJECT_NAME    = STARLINK-35559
OBJECT_ID      = 2025-236K
CENTER_NAME    = EARTH
REF_FRAME      = TEME
TIME_SYSTEM    = UTC
MEAN_ELEMENT_THEORY = SGP/SGP4

EPOCH          = 2025-11-12T22:00:01.999584
MEAN_MOTION    = 15.57003158
ECCENTRICITY   = .00014129
INCLINATION    = 53.1588
RA_OF_ASC_NODE = 288.4111
ARG_OF_PERICENTER = 87.4602
MEAN_ANOMALY   = 0.9338

EPHEMERIS_TYPE = 0
CLASSIFICATION_TYPE = U
NORAD_CAT_ID   = 66095
ELEMENT_SET_NO = 999
REV_AT_EPOCH   = 508
BSTAR          = -.31563567E-1
MEAN_MOTION_DOT = -.206948E-1
MEAN_MOTION_DDOT = 0

CCSDS_OMM_VERS = 2.0
CREATION_DATE  = 
ORIGINATOR     = 

OBJECT_NAME    = STARLINK-34386
OBJECT_ID      = 2025-236L
CENTER_NAME    = EARTH
REF_FRAME      = TEME
TIME_SYSTEM    = UTC
MEAN_ELEMENT_THEORY = SGP/SGP4

EPOCH          = 2025-11-12T22:00:01.999584
MEAN_MOTION    = 15.57001390
ECCENTRICITY   = .00013568
INCLINATION    = 53.1588
RA_OF_ASC_NODE = 288.4072
ARG_OF_PERICENTER = 89.7375
MEAN_ANOMALY   = 0.5751

EPHEMERIS_TYPE = 0
CLASSIFICATION_TYPE = U
NORAD_CAT_ID   = 66096
ELEMENT_SET_NO = 999
REV_AT_EPOCH   = 508
BSTAR          = -.31528326E-1
MEAN_MOTION_DOT = -.2067259E-1
MEAN_MOTION_DDOT = 0

CCSDS_OMM_VERS = 2.0
CREATION_DATE  = 
ORIGINATOR     = 

OBJECT_NAME    = STARLINK-35613
OBJECT_ID      = 2025-236M
CENTER_NAME    = EARTH
REF_FRAME      = TEME
TIME_SYSTEM    = UTC
MEAN_ELEMENT_THEORY = SGP/SGP4

EPOCH          = 2025-11-12T22:00:01.999584
MEAN_MOTION    = 15.57003425
ECCENTRICITY   = .00014108
INCLINATION    = 53.1589
RA_OF_ASC_NODE = 288.3990
ARG_OF_PERICENTER = 87.2755
MEAN_ANOMALY   = 6.8682

EPHEMERIS_TYPE = 0
CLASSIFICATION_TYPE = U
NORAD_CAT_ID   = 66097
ELEMENT_SET_NO = 999
REV_AT_EPOCH   = 508
BSTAR          = -.31555838E-1
MEAN_MOTION_DOT = -.2069045E-1
MEAN_MOTION_DDOT = 0

CCSDS_OMM_VERS = 2.0
CREATION_DATE  = 
ORIGINATOR     = 

OBJECT_NAME    = STARLINK-34206
OBJECT_ID      = 2025-236N
CENTER_NAME    = EARTH
REF_FRAME      = TEME
TIME_SYSTEM    = UTC
MEAN_ELEMENT_THEORY = SGP/SGP4

EPOCH          = 2025-11-12T22:00:01.999584
MEAN_MOTION    = 15.57007131
ECCENTRICITY   = .0001382
INCLINATION    = 53.1591
RA_OF_ASC_NODE = 288.3949
ARG_OF_PERICENTER = 85.7634
MEAN_ANOMALY   = 10.2956

EPHEMERIS_TYPE = 0
CLASSIFICATION_TYPE = U
NORAD_CAT_ID   = 66098
ELEMENT_SET_NO = 999
REV_AT_EPOCH   = 507
BSTAR          = -.31636882E-1
MEAN_MOTION_DOT = -.2074024E-1
MEAN_MOTION_DDOT = 0

CCSDS_OMM_VERS = 2.0
CREATION_DATE  = 
ORIGINATOR     = 

OBJECT_NAME    = STARLINK-34460
OBJECT_ID      = 2025-236P
CENTER_NAME    = EARTH
REF_FRAME      = TEME
TIME_SYSTEM    = UTC
MEAN_ELEMENT_THEORY = SGP/SGP4

EPOCH          = 2025-11-12T22:00:01.999584
MEAN_MOTION    = 15.57002204
ECCENTRICITY   = .00014317
INCLINATION    = 53.1588
RA_OF_ASC_NODE = 288.4033
ARG_OF_PERICENTER = 84.8939
MEAN_ANOMALY   = 7.3342

EPHEMERIS_TYPE = 0
CLASSIFICATION_TYPE = U
NORAD_CAT_ID   = 66099
ELEMENT_SET_NO = 999
REV_AT_EPOCH   = 508
BSTAR          = -.31535177E-1
MEAN_MOTION_DOT = -.2067766E-1
MEAN_MOTION_DDOT = 0

CCSDS_OMM_VERS = 2.0
CREATION_DATE  = 
ORIGINATOR     = 

OBJECT_NAME    = STARLINK-35609
OBJECT_ID      = 2025-236Q
CENTER_NAME    = EARTH
REF_FRAME      = TEME
TIME_SYSTEM    = UTC
MEAN_ELEMENT_THEORY = SGP/SGP4

EPOCH          = 2025-11-12T22:00:01.999584
MEAN_MOTION    = 15.57005381
ECCENTRICITY   = .00013695
INCLINATION    = 53.1593
RA_OF_ASC_NODE = 288.3906
ARG_OF_PERICENTER = 86.5603
MEAN_ANOMALY   = 11.4183

EPHEMERIS_TYPE = 0
CLASSIFICATION_TYPE = U
NORAD_CAT_ID   = 66100
ELEMENT_SET_NO = 999
REV_AT_EPOCH   = 502
BSTAR          = -.31628855E-1
MEAN_MOTION_DOT = -.2073424E-1
MEAN_MOTION_DDOT = 0

CCSDS_OMM_VERS = 2.0
CREATION_DATE  = 
ORIGINATOR     = 

OBJECT_NAME    = STARLINK-35595
OBJECT_ID      = 2025-236R
CENTER_NAME    = EARTH
REF_FRAME      = TEME
TIME_SYSTEM    = UTC
MEAN_ELEMENT_THEORY = SGP/SGP4

EPOCH          = 2025-11-12T22:00:01.999584
MEAN_MOTION    = 15.57004379
ECCENTRICITY   = .00014689
INCLINATION    = 53.1595
RA_OF_ASC_NODE = 288.3861
ARG_OF_PERICENTER = 90.1119
MEAN_ANOMALY   = 9.7848

EPHEMERIS_TYPE = 0
CLASSIFICATION_TYPE = U
NORAD_CAT_ID   = 66101
ELEMENT_SET_NO = 999
REV_AT_EPOCH   = 502
BSTAR          = -.31635005E-1
MEAN_MOTION_DOT = -.2073779E-1
MEAN_MOTION_DDOT = 0

CCSDS_OMM_VERS = 2.0
CREATION_DATE  = 
ORIGINATOR     = 

OBJECT_NAME    = STARLINK-35599
OBJECT_ID      = 2025-236S
CENTER_NAME    = EARTH
REF_FRAME      = TEME
TIME_SYSTEM    = UTC
MEAN_ELEMENT_THEORY = SGP/SGP4

EPOCH          = 2025-11-12T22:00:01.999584
MEAN_MOTION    = 15.57001684
ECCENTRICITY   = .00013734
INCLINATION    = 53.1593
RA_OF_ASC_NODE = 288.3831
ARG_OF_PERICENTER = 88.2084
MEAN_ANOMALY   = 13.6068

EPHEMERIS_TYPE = 0
CLASSIFICATION_TYPE = U
NORAD_CAT_ID   = 66102
ELEMENT_SET_NO = 999
REV_AT_EPOCH   = 502
BSTAR          = -.31566226E-1
MEAN_MOTION_DOT = -.2069506E-1
MEAN_MOTION_DDOT = 0

CCSDS_OMM_VERS = 2.0
CREATION_DATE  = 
ORIGINATOR     = 

OBJECT_NAME    = STARLINK-35622
OBJECT_ID      = 2025-236T
CENTER_NAME    = EARTH
REF_FRAME      = TEME
TIME_SYSTEM    = UTC
MEAN_ELEMENT_THEORY = SGP/SGP4

EPOCH          = 2025-11-12T22:00:01.999584
MEAN_MOTION    = 15.57005954
ECCENTRICITY   = .00013852
INCLINATION    = 53.1590
RA_OF_ASC_NODE = 288.3750
ARG_OF_PERICENTER = 85.9977
MEAN_ANOMALY   = 19.6488

EPHEMERIS_TYPE = 0
CLASSIFICATION_TYPE = U
NORAD_CAT_ID   = 66103
ELEMENT_SET_NO = 999
REV_AT_EPOCH   = 508
BSTAR          = -.31649868E-1
MEAN_MOTION_DOT = -.2074703E-1
MEAN_MOTION_DDOT = 0

